SL-3 R/B                
1 13403U 82079B   26052.58774173  .00006552  00000+0  26308-3 0  9993
2 13403  81.1459 212.0850 0024405 219.3583 140.5877 15.24528625375248
SL-14 R/B               
1 13553U 82092B   26052.35580755  .00000492  00000+0  52440-4 0  9994
2 13553  82.5712 156.6732 0020209 359.8304  63.9986 14.86647731326503
SL-3 R/B                
1 13819U 83010B   26052.38611535  .00016971  00000+0  34814-3 0  9997
2 13819  81.1044  22.2244 0018647 102.3881 257.9451 15.45715379355426
SL-3 R/B                
1 14208U 83075B   26052.55382973  .00010991  00000+0  29459-3 0  9996
2 14208  97.6139  56.5269 0019791 289.5275  70.3831 15.37977921327678
COSMOS 1536             
1 14699U 84013A   26052.23634139  .00005509  00000+0  22843-3 0  9991
2 14699  82.5454 124.2017 0013683 346.3514  13.7351 15.23583231270117
SL-14 R/B               
1 14820U 84027B   26052.59941293  .00000356  00000+0  37820-4 0  9990
2 14820  82.5382 260.1077 0018696  31.1374 329.0946 14.85958409245240
SL-8 R/B                
1 15483U 85006B   26052.64864187  .00000126  00000+0  50370-4 0  9996
2 15483  74.0449 290.6672 0019076 211.8911 178.3539 14.37774290151725
SL-12 R/B(2)            
1 15772U 85042D   26052.52174847  .00000128  00000+0  79119-4 0  9995
2 15772  71.1078 121.8888 0034122 154.3853 303.1675 14.21977754112090
SL-14 R/B               
1 15945U 85069B   26052.45442595  .00000499  00000+0  53702-4 0  9997
2 15945  82.5253  40.2005 0017293 244.3707 115.5723 14.86412188170422
SL-16 R/B               
1 16182U 85097B   26052.60934912  .00000192  00000+0  12041-3 0  9998
2 16182  71.0032 174.4052 0009713 278.0334 168.0439 14.16595157 84954
SL-14 R/B               
1 16496U 86006B   26052.57034298  .00000503  00000+0  50899-4 0  9991
2 16496  82.5244 274.9113 0075789 327.1677  32.4841 14.86792001146819
COSMOS 1743             
1 16719U 86034A   26052.52004818  .00030756  00000+0  42016-3 0  9994
2 16719  82.5304  90.7859 0003805  13.1295 347.0058 15.57295215177737
