CCSDS_OMM_VERS = 2.0
CREATION_DATE  = 
ORIGINATOR     = 

OBJECT_NAME    = SL-3 R/B
OBJECT_ID      = 1982-079B
CENTER_NAME    = EARTH
REF_FRAME      = TEME
TIME_SYSTEM    = UTC
MEAN_ELEMENT_THEORY = SGP/SGP4

EPOCH          = 2026-02-21T14:06:20.885472
MEAN_MOTION    = 15.24528625
ECCENTRICITY   = .00244056
INCLINATION    = 81.1459
RA_OF_ASC_NODE = 212.0850
ARG_OF_PERICENTER = 219.3583
MEAN_ANOMALY   = 140.5877

EPHEMERIS_TYPE = 0
CLASSIFICATION_TYPE = U
NORAD_CAT_ID   = 13403
ELEMENT_SET_NO = 999
REV_AT_EPOCH   = 37524
BSTAR          = .26308289E-3
MEAN_MOTION_DOT = .6552E-4
MEAN_MOTION_DDOT = 0

CCSDS_OMM_VERS = 2.0
CREATION_DATE  = 
ORIGINATOR     = 

OBJECT_NAME    = SL-14 R/B
OBJECT_ID      = 1982-092B
CENTER_NAME    = EARTH
REF_FRAME      = TEME
TIME_SYSTEM    = UTC
MEAN_ELEMENT_THEORY = SGP/SGP4

EPOCH          = 2026-02-21T08:32:21.772320
MEAN_MOTION    = 14.86647731
ECCENTRICITY   = .00202091
INCLINATION    = 82.5712
RA_OF_ASC_NODE = 156.6732
ARG_OF_PERICENTER = 359.8304
MEAN_ANOMALY   = 63.9986

EPHEMERIS_TYPE = 0
CLASSIFICATION_TYPE = U
NORAD_CAT_ID   = 13553
ELEMENT_SET_NO = 999
REV_AT_EPOCH   = 32650
BSTAR          = .52439646E-4
MEAN_MOTION_DOT = .492E-5
MEAN_MOTION_DDOT = 0

CCSDS_OMM_VERS = 2.0
CREATION_DATE  = 
ORIGINATOR     = 

OBJECT_NAME    = SL-3 R/B
OBJECT_ID      = 1983-010B
CENTER_NAME    = EARTH
REF_FRAME      = TEME
TIME_SYSTEM    = UTC
MEAN_ELEMENT_THEORY = SGP/SGP4

EPOCH          = 2026-02-21T09:16:00.366240
MEAN_MOTION    = 15.45715379
ECCENTRICITY   = .00186472
INCLINATION    = 81.1044
RA_OF_ASC_NODE = 22.2244
ARG_OF_PERICENTER = 102.3881
MEAN_ANOMALY   = 257.9451

EPHEMERIS_TYPE = 0
CLASSIFICATION_TYPE = U
NORAD_CAT_ID   = 13819
ELEMENT_SET_NO = 999
REV_AT_EPOCH   = 35542
BSTAR          = .34814038E-3
MEAN_MOTION_DOT = .16971E-3
MEAN_MOTION_DDOT = 0

CCSDS_OMM_VERS = 2.0
CREATION_DATE  = 
ORIGINATOR     = 

OBJECT_NAME    = SL-3 R/B
OBJECT_ID      = 1983-075B
CENTER_NAME    = EARTH
REF_FRAME      = TEME
TIME_SYSTEM    = UTC
MEAN_ELEMENT_THEORY = SGP/SGP4

EPOCH          = 2026-02-21T13:17:30.888672
MEAN_MOTION    = 15.37977921
ECCENTRICITY   = .00197915
INCLINATION    = 97.6139
RA_OF_ASC_NODE = 56.5269
ARG_OF_PERICENTER = 289.5275
MEAN_ANOMALY   = 70.3831

EPHEMERIS_TYPE = 0
CLASSIFICATION_TYPE = U
NORAD_CAT_ID   = 14208
ELEMENT_SET_NO = 999
REV_AT_EPOCH   = 32767
BSTAR          = .2945893E-3
MEAN_MOTION_DOT = .10991E-3
MEAN_MOTION_DDOT = 0

CCSDS_OMM_VERS = 2.0
CREATION_DATE  = 
ORIGINATOR     = 

OBJECT_NAME    = COSMOS 1536
OBJECT_ID      = 1984-013A
CENTER_NAME    = EARTH
REF_FRAME      = TEME
TIME_SYSTEM    = UTC
MEAN_ELEMENT_THEORY = SGP/SGP4

EPOCH          = 2026-02-21T05:40:19.896096
MEAN_MOTION    = 15.23583231
ECCENTRICITY   = .0013683
INCLINATION    = 82.5454
RA_OF_ASC_NODE = 124.2017
ARG_OF_PERICENTER = 346.3514
MEAN_ANOMALY   = 13.7351

EPHEMERIS_TYPE = 0
CLASSIFICATION_TYPE = U
NORAD_CAT_ID   = 14699
ELEMENT_SET_NO = 999
REV_AT_EPOCH   = 27011
BSTAR          = .22843E-3
MEAN_MOTION_DOT = .5509E-4
MEAN_MOTION_DDOT = 0

CCSDS_OMM_VERS = 2.0
CREATION_DATE  = 
ORIGINATOR     = 

OBJECT_NAME    = SL-14 R/B
OBJECT_ID      = 1984-027B
CENTER_NAME    = EARTH
REF_FRAME      = TEME
TIME_SYSTEM    = UTC
MEAN_ELEMENT_THEORY = SGP/SGP4

EPOCH          = 2026-02-21T14:23:09.277152
MEAN_MOTION    = 14.85958409
ECCENTRICITY   = .00186969
INCLINATION    = 82.5382
RA_OF_ASC_NODE = 260.1077
ARG_OF_PERICENTER = 31.1374
MEAN_ANOMALY   = 329.0946

EPHEMERIS_TYPE = 0
CLASSIFICATION_TYPE = U
NORAD_CAT_ID   = 14820
ELEMENT_SET_NO = 999
REV_AT_EPOCH   = 24524
BSTAR          = .37819935E-4
MEAN_MOTION_DOT = .356E-5
MEAN_MOTION_DDOT = 0

CCSDS_OMM_VERS = 2.0
CREATION_DATE  = 
ORIGINATOR     = 

OBJECT_NAME    = SL-8 R/B
OBJECT_ID      = 1985-006B
CENTER_NAME    = EARTH
REF_FRAME      = TEME
TIME_SYSTEM    = UTC
MEAN_ELEMENT_THEORY = SGP/SGP4

EPOCH          = 2026-02-21T15:34:02.657568
MEAN_MOTION    = 14.37774290
ECCENTRICITY   = .00190765
INCLINATION    = 74.0449
RA_OF_ASC_NODE = 290.6672
ARG_OF_PERICENTER = 211.8911
MEAN_ANOMALY   = 178.3539

EPHEMERIS_TYPE = 0
CLASSIFICATION_TYPE = U
NORAD_CAT_ID   = 15483
ELEMENT_SET_NO = 999
REV_AT_EPOCH   = 15172
BSTAR          = .50370059E-4
MEAN_MOTION_DOT = .126E-5
MEAN_MOTION_DDOT = 0

CCSDS_OMM_VERS = 2.0
CREATION_DATE  = 
ORIGINATOR     = 

OBJECT_NAME    = SL-12 R/B(2)
OBJECT_ID      = 1985-042D
CENTER_NAME    = EARTH
REF_FRAME      = TEME
TIME_SYSTEM    = UTC
MEAN_ELEMENT_THEORY = SGP/SGP4

EPOCH          = 2026-02-21T12:31:19.067808
MEAN_MOTION    = 14.21977754
ECCENTRICITY   = .00341228
INCLINATION    = 71.1078
RA_OF_ASC_NODE = 121.8888
ARG_OF_PERICENTER = 154.3853
MEAN_ANOMALY   = 303.1675

EPHEMERIS_TYPE = 0
CLASSIFICATION_TYPE = U
NORAD_CAT_ID   = 15772
ELEMENT_SET_NO = 999
REV_AT_EPOCH   = 11209
BSTAR          = .79118619E-4
MEAN_MOTION_DOT = .128E-5
MEAN_MOTION_DDOT = 0

CCSDS_OMM_VERS = 2.0
CREATION_DATE  = 
ORIGINATOR     = 

OBJECT_NAME    = SL-14 R/B
OBJECT_ID      = 1985-069B
CENTER_NAME    = EARTH
REF_FRAME      = TEME
TIME_SYSTEM    = UTC
MEAN_ELEMENT_THEORY = SGP/SGP4

EPOCH          = 2026-02-21T10:54:22.402080
MEAN_MOTION    = 14.86412188
ECCENTRICITY   = .00172936
INCLINATION    = 82.5253
RA_OF_ASC_NODE = 40.2005
ARG_OF_PERICENTER = 244.3707
MEAN_ANOMALY   = 115.5723

EPHEMERIS_TYPE = 0
CLASSIFICATION_TYPE = U
NORAD_CAT_ID   = 15945
ELEMENT_SET_NO = 999
REV_AT_EPOCH   = 17042
BSTAR          = .53701722E-4
MEAN_MOTION_DOT = .499E-5
MEAN_MOTION_DDOT = 0

CCSDS_OMM_VERS = 2.0
CREATION_DATE  = 
ORIGINATOR     = 

OBJECT_NAME    = SL-16 R/B
OBJECT_ID      = 1985-097B
CENTER_NAME    = EARTH
REF_FRAME      = TEME
TIME_SYSTEM    = UTC
MEAN_ELEMENT_THEORY = SGP/SGP4

EPOCH          = 2026-02-21T14:37:27.763968
MEAN_MOTION    = 14.16595157
ECCENTRICITY   = .00097138
INCLINATION    = 71.0032
RA_OF_ASC_NODE = 174.4052
ARG_OF_PERICENTER = 278.0334
MEAN_ANOMALY   = 168.0439

EPHEMERIS_TYPE = 0
CLASSIFICATION_TYPE = U
NORAD_CAT_ID   = 16182
ELEMENT_SET_NO = 999
REV_AT_EPOCH   = 8495
BSTAR          = .1204112E-3
MEAN_MOTION_DOT = .192E-5
MEAN_MOTION_DDOT = 0

CCSDS_OMM_VERS = 2.0
CREATION_DATE  = 
ORIGINATOR     = 

OBJECT_NAME    = SL-14 R/B
OBJECT_ID      = 1986-006B
CENTER_NAME    = EARTH
REF_FRAME      = TEME
TIME_SYSTEM    = UTC
MEAN_ELEMENT_THEORY = SGP/SGP4

EPOCH          = 2026-02-21T13:41:17.633472
MEAN_MOTION    = 14.86792001
ECCENTRICITY   = .0075789
INCLINATION    = 82.5244
RA_OF_ASC_NODE = 274.9113
ARG_OF_PERICENTER = 327.1677
MEAN_ANOMALY   = 32.4841

EPHEMERIS_TYPE = 0
CLASSIFICATION_TYPE = U
NORAD_CAT_ID   = 16496
ELEMENT_SET_NO = 999
REV_AT_EPOCH   = 14681
BSTAR          = .50898829E-4
MEAN_MOTION_DOT = .503E-5
MEAN_MOTION_DDOT = 0

CCSDS_OMM_VERS = 2.0
CREATION_DATE  = 
ORIGINATOR     = 

OBJECT_NAME    = COSMOS 1743
OBJECT_ID      = 1986-034A
CENTER_NAME    = EARTH
REF_FRAME      = TEME
TIME_SYSTEM    = UTC
MEAN_ELEMENT_THEORY = SGP/SGP4

EPOCH          = 2026-02-21T12:28:52.162752
MEAN_MOTION    = 15.57295215
ECCENTRICITY   = .00038051
INCLINATION    = 82.5304
RA_OF_ASC_NODE = 90.7859
ARG_OF_PERICENTER = 13.1295
MEAN_ANOMALY   = 347.0058

EPHEMERIS_TYPE = 0
CLASSIFICATION_TYPE = U
NORAD_CAT_ID   = 16719
ELEMENT_SET_NO = 999
REV_AT_EPOCH   = 17773
BSTAR          = .42015558E-3
MEAN_MOTION_DOT = .30756E-3
MEAN_MOTION_DDOT = 0

